NORAD_CAT_ID,OBJECT_NAME,OBJECT_TYPE,EPOCH,MEAN_MOTION,ECCENTRICITY,INCLINATION,RA_OF_ASC_NODE,ARG_OF_PERICENTER,MEAN_ANOMALY,BSTAR,MEAN_MOTION_DOT,MEAN_MOTION_DDOT,TLE_LINE0,TLE_LINE1,TLE_LINE2,SEMIMAJOR_AXIS,PERIOD,APOGEE,PERIGEE,DECAYED
52639.0,STARLINK-3968,PAYLOAD,2024-02-23 14:19:13,15.08843158,0.0001813,53.22,3.9734,87.6838,272.4361,-1.8743e-05,-5.86e-06,0.0,0 STARLINK-3968,1 52639U 22052AT  24054.59668401 -.00000586  00000-0 -18743-4 0  9998,2 52639  53.2200   3.9734 0001813  87.6838 272.4361 15.08843158 99453,6917.871,95.437,540.99,538.482,0.0
52639.0,STARLINK-3968,PAYLOAD,2024-02-24 03:02:18,15.08837946,0.000151,53.2189,1.5938,108.2052,251.9105,3.4368e-05,2.59e-06,0.0,0 STARLINK-3968,1 52639U 22052AT  24055.12660542  .00000259  00000-0  34368-4 0  9992,2 52639  53.2189   1.5938 0001510 108.2052 251.9105 15.08837946 99109,6917.887,95.438,540.796,538.707,0.0
52639.0,STARLINK-3968,PAYLOAD,2024-02-24 20:31:33,15.0883952,0.0001525,53.2205,358.3245,97.594,262.5226,6.4729e-05,7.42e-06,0.0,0 STARLINK-3968,1 52639U 22052AT  24055.85524588  .00000742  00000-0  64729-4 0  9992,2 52639  53.2205 358.3245 0001525  97.5940 262.5226 15.08839520 99645,6917.882,95.438,540.802,538.692,0.0
52639.0,STARLINK-3968,PAYLOAD,2024-02-25 02:53:05,15.08849977,0.0001551,53.2204,357.1369,90.1036,270.0134,6.3825e-05,7.28e-06,0.0,0 STARLINK-3968,1 52639U 22052AT  24056.12020002  .00000728  00000-0  63825-4 0  9995,2 52639  53.2204 357.1369 0001551  90.1036 270.0134 15.08849977 99258,6917.85,95.437,540.788,538.642,0.0
52639.0,STARLINK-3968,PAYLOAD,2024-02-25 12:25:24,15.08847722,0.000177,53.22,355.3483,70.8046,289.3138,4.2863e-05,3.94e-06,0.0,0 STARLINK-3968,1 52639U 22052AT  24056.51764160  .00000394  00000-0  42863-4 0  9996,2 52639  53.2200 355.3483 0001770  70.8046 289.3138 15.08847722 99747,6917.857,95.437,540.946,538.497,0.0
52639.0,STARLINK-3968,PAYLOAD,2024-02-26 05:54:37,15.08863288,0.0001261,53.2183,352.0818,105.6702,254.443,0.00019104,2.756e-05,0.0,0 STARLINK-3968,1 52639U 22052AT  24057.24626398  .00002756  00000-0  19104-3 0  9992,2 52639  53.2183 352.0818 0001261 105.6702 254.4430 15.08863288 99422,6917.809,95.436,540.547,538.802,0.0
52639.0,STARLINK-3968,PAYLOAD,2024-02-27 00:59:17,15.08835186,0.0001274,53.2183,348.5124,110.9115,249.2014,-0.00011665,-2.144e-05,0.0,0 STARLINK-3968,1 52639U 22052AT  24058.04117325 -.00002144  00000-0 -11665-3 0  9993,2 52639  53.2183 348.5124 0001274 110.9115 249.2014 15.08835186 99542,6917.895,95.438,540.641,538.879,0.0
52639.0,STARLINK-3968,PAYLOAD,2024-02-27 12:06:58,15.08843596,9.82e-05,53.2184,346.4327,107.6804,252.4295,-0.0001518,-2.703e-05,0.0,0 STARLINK-3968,1 52639U 22052AT  24058.50484806 -.00002703  00000-0 -15180-3 0  9992,2 52639  53.2184 346.4327 0000982 107.6804 252.4295 15.08843596 99617,6917.869,95.437,540.414,539.055,0.0
52639.0,STARLINK-3968,PAYLOAD,2024-02-27 18:28:32,15.08827491,0.0001051,53.2185,345.2438,102.2162,257.8948,2.8848e-05,1.71e-06,0.0,0 STARLINK-3968,1 52639U 22052AT  24058.76981671  .00000171  00000-0  28848-4 0  9993,2 52639  53.2185 345.2438 0001051 102.2162 257.8948 15.08827491 99658,6917.919,95.438,540.511,539.057,0.0
52639.0,STARLINK-3968,PAYLOAD,2024-02-28 04:00:49,15.08844823,0.0001347,53.2176,343.458,102.3135,257.8008,0.00010615,1.402e-05,0.0,0 STARLINK-3968,1 52639U 22052AT  24059.16724423  .00001402  00000-0  10615-3 0  9998,2 52639  53.2176 343.4580 0001347 102.3135 257.8008 15.08844823 99717,6917.866,95.437,540.662,538.799,0.0
52639.0,STARLINK-3968,PAYLOAD,2024-02-28 11:57:45,15.08847811,0.0001459,53.2175,341.9708,89.0394,271.0765,-5.3026e-05,-1.132e-05,0.0,0 STARLINK-3968,1 52639U 22052AT  24059.49844518 -.00001132  00000-0 -53026-4 0  9998,2 52639  53.2175 341.9708 0001459  89.0394 271.0765 15.08847811100196,6917.857,95.437,540.731,538.712,0.0
52639.0,STARLINK-3968,PAYLOAD,2024-02-29 03:51:37,15.08837274,0.0001537,53.219,338.9945,86.4556,273.6612,0.00013533,1.866e-05,0.0,0 STARLINK-3968,1 52639U 22052AT  24060.16085114  .00001866  00000-0  13533-3 0  9993,2 52639  53.2190 338.9945 0001537  86.4556 273.6612 15.08837274 99862,6917.889,95.438,540.817,538.69,0.0
52639.0,STARLINK-3968,PAYLOAD,2024-02-29 22:56:15,15.08820027,6.86e-05,53.2187,335.426,83.8466,276.2604,0.00028716,4.283e-05,0.0,0 STARLINK-3968,1 52639U 22052AT  24060.95573807  .00004283  00000-0  28716-3 0  9996,2 52639  53.2187 335.4260 0000686  83.8466 276.2604 15.08820027100417,6917.941,95.439,540.281,539.332,0.0
52639.0,STARLINK-3968,PAYLOAD,2024-03-01 11:39:19,15.08849875,0.0001451,53.2183,333.0492,92.7016,267.4143,4.0157e-05,3.51e-06,0.0,0 STARLINK-3968,1 52639U 22052AT  24061.48564581  .00000351  00000-0  40157-4 0  9990,2 52639  53.2183 333.0492 0001451  92.7016 267.4143 15.08849875100068,6917.85,95.437,540.719,538.711,0.0
52639.0,STARLINK-3968,PAYLOAD,2024-03-02 00:22:24,15.08849027,0.0001583,53.2186,330.6707,117.771,242.3442,3.2393e-05,2.28e-06,0.0,0 STARLINK-3968,1 52639U 22052AT  24062.01556452  .00000228  00000-0  32393-4 0  9994,2 52639  53.2186 330.6707 0001583 117.7710 242.3442 15.08849027100577,6917.853,95.437,540.813,538.623,0.0
52639.0,STARLINK-3968,PAYLOAD,2024-03-02 22:37:49,15.08830308,0.0001324,53.2168,326.507,105.5636,254.5502,0.00014942,2.09e-05,0.0,0 STARLINK-3968,1 52639U 22052AT  24062.94292951  .00002090  00000-0  14942-3 0  9995,2 52639  53.2168 326.5070 0001324 105.5636 254.5502 15.08830308100719,6917.91,95.438,540.691,538.859,0.0
52639.0,STARLINK-3968,PAYLOAD,2024-03-03 00:13:12,15.088361,0.0001308,53.2173,326.2103,97.8117,262.3024,2.7339e-05,1.47e-06,0.0,0 STARLINK-3968,1 52639U 22052AT  24063.00917097  .00000147  00000-0  27339-4 0  9994,2 52639  53.2173 326.2103 0001308  97.8117 262.3024 15.08836100100293,6917.892,95.438,540.662,538.852,0.0
52639.0,STARLINK-3968,PAYLOAD,2024-03-03 17:42:27,15.08835396,0.0001283,53.2167,322.9368,106.6389,253.4744,-3.9937e-05,-9.23e-06,0.0,0 STARLINK-3968,1 52639U 22052AT  24063.73781358 -.00000923  00000-0 -39937-4 0  9994,2 52639  53.2167 322.9368 0001283 106.6389 253.4744 15.08835396100830,6917.894,95.438,540.647,538.872,0.0
52639.0,STARLINK-3968,PAYLOAD,2024-03-04 09:36:16,15.08855053,0.0001265,53.2168,319.9652,86.9404,273.1733,0.00013095,1.798e-05,0.0,0 STARLINK-3968,1 52639U 22052AT  24064.40019429  .00001798  00000-0  13095-3 0  9997,2 52639  53.2168 319.9652 0001265  86.9404 273.1733 15.08855053100504,6917.834,95.437,540.574,538.824,0.0
52639.0,STARLINK-3968,PAYLOAD,2024-03-04 20:44:01,15.08816193,0.0001356,53.2172,317.8818,92.1084,268.0063,-6.4138e-05,-1.308e-05,0.0,0 STARLINK-3968,1 52639U 22052AT  24064.86390612 -.00001308  00000-0 -64138-4 0  9997,2 52639  53.2172 317.8818 0001356  92.1084 268.0063 15.08816193100572,6917.953,95.439,540.756,538.88,0.0
52639.0,STARLINK-3968,PAYLOAD,2024-03-04 22:19:24,15.08820268,0.0001611,53.2182,317.5891,108.8386,251.278,-3.4363e-05,-8.35e-06,0.0,0 STARLINK-3968,1 52639U 22052AT  24064.93014345 -.00000835  00000-0 -34363-4 0  9992,2 52639  53.2182 317.5891 0001611 108.8386 251.2780 15.08820268101013,6917.941,95.439,540.92,538.691,0.0
52639.0,STARLINK-3968,PAYLOAD,2024-03-05 03:05:33,15.08830393,0.0001405,53.2177,316.6947,104.2554,255.8595,5.0472e-05,5.15e-06,0.0,0 STARLINK-3968,1 52639U 22052AT  24065.12885663  .00000515  00000-0  50472-4 0  9995,2 52639  53.2177 316.6947 0001405 104.2554 255.8595 15.08830393100616,6917.91,95.438,540.747,538.803,0.0
52639.0,STARLINK-3968,PAYLOAD,2024-03-05 23:45:34,15.08835437,0.0001489,53.2183,312.831,90.7598,269.3565,6.0031e-05,6.67e-06,0.0,0 STARLINK-3968,1 52639U 22052AT  24065.98997838  .00000667  00000-0  60031-4 0  9997,2 52639  53.2183 312.8310 0001489  90.7598 269.3565 15.08835437101177,6917.894,95.438,540.789,538.729,0.0
52639.0,STARLINK-3968,PAYLOAD,2024-03-06 20:25:35,15.08829667,0.000162,53.2183,308.9625,76.9239,283.1934,0.00015929,2.247e-05,0.0,0 STARLINK-3968,1 52639U 22052AT  24066.85110114  .00002247  00000-0  15929-3 0  9999,2 52639  53.2183 308.9625 0001620  76.9239 283.1934 15.08829667100875,6917.912,95.438,540.898,538.656,0.0
52639.0,STARLINK-3968,PAYLOAD,2024-03-07 09:08:39,15.08845619,0.0001453,53.2179,306.5846,80.319,279.7967,0.00010486,1.382e-05,0.0,0 STARLINK-3968,1 52639U 22052AT  24067.38101386  .00001382  00000-0  10486-3 0  9991,2 52639  53.2179 306.5846 0001453  80.3190 279.7967 15.08845619101387,6917.863,95.437,540.733,538.723,0.0
52639.0,STARLINK-3968,PAYLOAD,2024-03-08 01:02:32,15.08833135,0.0001541,53.2171,303.6077,77.2702,282.8463,-8.2272e-06,-4.19e-06,0.0,0 STARLINK-3968,1 52639U 22052AT  24068.04342829 -.00000419  00000-0 -82272-5 0  9990,2 52639  53.2171 303.6077 0001541  77.2702 282.8463 15.08833135101055,6917.901,95.438,540.832,538.7,0.0
52639.0,STARLINK-3968,PAYLOAD,2024-03-09 00:53:18,15.08846084,0.0001427,53.2175,299.1472,105.2931,254.8218,7.6977e-05,9.38e-06,0.0,0 STARLINK-3968,1 52639U 22052AT  24069.03701647  .00000938  00000-0  76977-4 0  9995,2 52639  53.2175 299.1472 0001427 105.2931 254.8218 15.08846084101207,6917.862,95.437,540.714,538.74,0.0
52639.0,STARLINK-3968,PAYLOAD,2024-03-09 08:50:13,15.08852644,0.0001474,53.217,297.6632,114.6998,245.4148,0.00011738,1.581e-05,0.0,0 STARLINK-3968,1 52639U 22052AT  24069.36821002  .00001581  00000-0  11738-3 0  9997,2 52639  53.2170 297.6632 0001474 114.6998 245.4148 15.08852644101681,6917.842,95.437,540.726,538.687,0.0
52639.0,STARLINK-3968,PAYLOAD,2024-03-09 21:33:18,15.08843379,0.000206,53.2172,295.2821,98.6928,261.4297,0.00017972,2.573e-05,0.0,0 STARLINK-3968,1 52639U 22052AT  24069.89813535  .00002573  00000-0  17972-3 0  9995,2 52639  53.2172 295.2821 0002060  98.6928 261.4297 15.08843379101760,6917.87,95.437,541.16,538.31,0.0
52639.0,STARLINK-3968,PAYLOAD,2024-03-10 00:44:05,15.08842049,0.0001574,53.2179,294.6898,96.6139,263.5032,0.00010504,1.384e-05,0.0,0 STARLINK-3968,1 52639U 22052AT  24070.03061771  .00001384  00000-0  10504-3 0  9993,2 52639  53.2179 294.6898 0001574  96.6139 263.5032 15.08842049101353,6917.874,95.437,540.828,538.65,0.0
